*******************************************************************************
Ephemeris / WWW_USER Mon Jul 15 19:04:01 2024 Pasadena, USA      / Horizons    
*******************************************************************************
Target body name: (2018 RC)                       {source: JPL#21}
Center body name: Earth (399)                     {source: DE441}
Center-site name: Gemini South Obs., Cerro Pachon
*******************************************************************************
Start time      : A.D. 2018-Oct-04 22:54:00.0000 UT      
Stop  time      : A.D. 2018-Oct-05 10:08:00.0000 UT      
Step-size       : 1 minutes
*******************************************************************************
Target pole/equ : undefined
Target radii    : undefined                                                    
Center geodetic : 289.2634, -30.2406227, 2.71233  {E-lon(deg),Lat(deg),Alt(km)}
Center cylindric: 289.2634,5517.21435,-3194.81213 {E-lon(deg),Dxy(km),Dz(km)}
Center pole/equ : ITRF93                          {East-longitude positive}
Center radii    : 6378.137, 6378.137, 6356.752 km {Equator_a, b, pole_c}       
Target primary  : Sun
Vis. interferer : MOON (R_eq= 1737.400) km        {source: DE441}
Rel. light bend : Sun                             {source: DE441}
Rel. lght bnd GM: 1.3271E+11 km^3/s^2                                          
Small-body perts: Yes                             {source: SB441-N16}
Atmos refraction: NO (AIRLESS)
RA format       : HMS
Time format     : CAL 
Calendar mode   : Mixed Julian/Gregorian
RTS-only print  : NO       
EOP file        : eop.240715.p241008                                           
EOP coverage    : DATA-BASED 1962-JAN-20 TO 2024-JUL-15. PREDICTS-> 2024-OCT-07
Units conversion: 1 au= 149597870.700 km, c= 299792.458 km/s, 1 day= 86400.0 s 
Table cut-offs 1: Elevation (-90.0deg=NO ),Airmass (>38.000=NO), Daylight (YES)
Table cut-offs 2: Solar elongation (  0.0,180.0=NO ),Local Hour Angle( 0.0=NO )
Table cut-offs 3: RA/DEC angular rate (     0.0=NO )                           
*******************************************************************************
Initial IAU76/J2000 heliocentric ecliptic osculating elements (au, days, deg.):
  EPOCH=  2458369.5 ! 2018-Sep-08.00 (TDB)         Residual RMS= .84866        
   EC= .2426621660028976   QR= .647471518312811    TP= 2458473.8617576878      
   OM= 346.8893436915528   W=  145.8737085184167   IN= 1.612045057594462       
  Equivalent ICRF heliocentric cartesian coordinates (au, au/d):
   X= 9.781363708094483E-01  Y=-2.377942828764822E-01  Z=-1.040448782093900E-01
  VX= 1.501011538102481E-03 VY= 1.393070215815854E-02 VZ= 6.509326736836346E-03
Asteroid physical parameters (km, seconds, rotational period in hours):        
   GM= n.a.                RAD= n.a.               ROTPER= .16548              
   H= 24.93                G= .150                 B-V= n.a.                   
                           ALBEDO= n.a.            STYP= n.a.                  
*******************************************************************************
 Date__(UT)__HR:MN     R.A._________(ICRF)_________DEC
******************************************************
$$SOE
 2018-Oct-05 05:03     13 12 29.094811 +01 31 46.78030
 2018-Oct-05 05:04     13 12 29.099523 +01 31 46.75780
 2018-Oct-05 05:05     13 12 29.104232 +01 31 46.73535
 2018-Oct-05 05:06     13 12 29.108938 +01 31 46.71293
 2018-Oct-05 05:07     13 12 29.113641 +01 31 46.69054
 2018-Oct-05 05:08     13 12 29.118339 +01 31 46.66820
 2018-Oct-05 05:09     13 12 29.123033 +01 31 46.64589
 2018-Oct-05 05:10     13 12 29.127721 +01 31 46.62361
 2018-Oct-05 05:11     13 12 29.132403 +01 31 46.60137
 2018-Oct-05 05:12     13 12 29.137079 +01 31 46.57917
 2018-Oct-05 05:13     13 12 29.141748 +01 31 46.55701
 2018-Oct-05 05:14     13 12 29.146409 +01 31 46.53488
 2018-Oct-05 05:15     13 12 29.151063 +01 31 46.51279
 2018-Oct-05 05:16     13 12 29.155707 +01 31 46.49073
 2018-Oct-05 05:17     13 12 29.160343 +01 31 46.46871
 2018-Oct-05 05:18     13 12 29.164969 +01 31 46.44672
 2018-Oct-05 05:19     13 12 29.169585 +01 31 46.42478
 2018-Oct-05 05:20     13 12 29.174189 +01 31 46.40287
 2018-Oct-05 05:21     13 12 29.178783 +01 31 46.38099
 2018-Oct-05 05:22     13 12 29.183365 +01 31 46.35915
 2018-Oct-05 05:23     13 12 29.187935 +01 31 46.33735
 2018-Oct-05 05:24     13 12 29.192491 +01 31 46.31558
 2018-Oct-05 05:25     13 12 29.197034 +01 31 46.29385
 2018-Oct-05 05:26     13 12 29.201564 +01 31 46.27216
 2018-Oct-05 05:27     13 12 29.206078 +01 31 46.25050
 2018-Oct-05 05:28     13 12 29.210578 +01 31 46.22887
 2018-Oct-05 05:29     13 12 29.215062 +01 31 46.20729
 2018-Oct-05 05:30     13 12 29.219530 +01 31 46.18574
 2018-Oct-05 05:31     13 12 29.223981 +01 31 46.16422
 2018-Oct-05 05:32     13 12 29.228415 +01 31 46.14274
 2018-Oct-05 05:33     13 12 29.232832 +01 31 46.12130
 2018-Oct-05 05:34     13 12 29.237230 +01 31 46.09990
 2018-Oct-05 05:35     13 12 29.241609 +01 31 46.07853
 2018-Oct-05 05:36     13 12 29.245969 +01 31 46.05719
 2018-Oct-05 05:37     13 12 29.250309 +01 31 46.03589
 2018-Oct-05 05:38     13 12 29.254629 +01 31 46.01463
 2018-Oct-05 05:39     13 12 29.258928 +01 31 45.99340
 2018-Oct-05 05:40     13 12 29.263205 +01 31 45.97221
 2018-Oct-05 05:41     13 12 29.267460 +01 31 45.95105
 2018-Oct-05 05:42     13 12 29.271693 +01 31 45.92993
 2018-Oct-05 05:43     13 12 29.275903 +01 31 45.90885
 2018-Oct-05 05:44     13 12 29.280089 +01 31 45.88780
 2018-Oct-05 05:45     13 12 29.284251 +01 31 45.86679
 2018-Oct-05 05:46     13 12 29.288389 +01 31 45.84581
 2018-Oct-05 05:47     13 12 29.292501 +01 31 45.82487
 2018-Oct-05 05:48     13 12 29.296587 +01 31 45.80396
 2018-Oct-05 05:49     13 12 29.300648 +01 31 45.78309
 2018-Oct-05 05:50     13 12 29.304681 +01 31 45.76225
 2018-Oct-05 05:51     13 12 29.308687 +01 31 45.74145
 2018-Oct-05 05:52     13 12 29.312666 +01 31 45.72068
 2018-Oct-05 05:53     13 12 29.316616 +01 31 45.69995
 2018-Oct-05 05:54     13 12 29.320537 +01 31 45.67926
 2018-Oct-05 05:55     13 12 29.324429 +01 31 45.65860
 2018-Oct-05 05:56     13 12 29.328291 +01 31 45.63797
 2018-Oct-05 05:57     13 12 29.332122 +01 31 45.61738
 2018-Oct-05 05:58     13 12 29.335923 +01 31 45.59683
 2018-Oct-05 05:59     13 12 29.339692 +01 31 45.57631
 2018-Oct-05 06:00     13 12 29.343429 +01 31 45.55582
 2018-Oct-05 06:01     13 12 29.347134 +01 31 45.53537
 2018-Oct-05 06:02     13 12 29.350805 +01 31 45.51495
 2018-Oct-05 06:03     13 12 29.354443 +01 31 45.49457
 2018-Oct-05 06:04     13 12 29.358047 +01 31 45.47423
 2018-Oct-05 06:05     13 12 29.361616 +01 31 45.45392
 2018-Oct-05 06:06     13 12 29.365150 +01 31 45.43364
 2018-Oct-05 06:07     13 12 29.368649 +01 31 45.41340
 2018-Oct-05 06:08     13 12 29.372111 +01 31 45.39319
 2018-Oct-05 06:09     13 12 29.375537 +01 31 45.37301
 2018-Oct-05 06:10     13 12 29.378925 +01 31 45.35287
 2018-Oct-05 06:11     13 12 29.382276 +01 31 45.33277
 2018-Oct-05 06:12     13 12 29.385589 +01 31 45.31270
 2018-Oct-05 06:13     13 12 29.388863 +01 31 45.29266
 2018-Oct-05 06:14     13 12 29.392098 +01 31 45.27266
 2018-Oct-05 06:15     13 12 29.395293 +01 31 45.25269
 2018-Oct-05 06:16     13 12 29.398447 +01 31 45.23276
 2018-Oct-05 06:17     13 12 29.401561 +01 31 45.21286
 2018-Oct-05 06:18     13 12 29.404634 +01 31 45.19299
 2018-Oct-05 06:19     13 12 29.407665 +01 31 45.17316
 2018-Oct-05 06:20     13 12 29.410654 +01 31 45.15336
 2018-Oct-05 06:21     13 12 29.413600 +01 31 45.13359
 2018-Oct-05 06:22     13 12 29.416502 +01 31 45.11386
 2018-Oct-05 06:23     13 12 29.419361 +01 31 45.09416
 2018-Oct-05 06:24     13 12 29.422175 +01 31 45.07449
 2018-Oct-05 06:25     13 12 29.424945 +01 31 45.05486
 2018-Oct-05 06:26     13 12 29.427670 +01 31 45.03526
 2018-Oct-05 06:27     13 12 29.430348 +01 31 45.01570
 2018-Oct-05 06:28     13 12 29.432981 +01 31 44.99616
 2018-Oct-05 06:29     13 12 29.435566 +01 31 44.97667
 2018-Oct-05 06:30     13 12 29.438104 +01 31 44.95720
 2018-Oct-05 06:31     13 12 29.440595 +01 31 44.93777
 2018-Oct-05 06:32     13 12 29.443037 +01 31 44.91837
 2018-Oct-05 06:33     13 12 29.445431 +01 31 44.89900
 2018-Oct-05 06:34     13 12 29.447775 +01 31 44.87966
 2018-Oct-05 06:35     13 12 29.450069 +01 31 44.86036
 2018-Oct-05 06:36     13 12 29.452313 +01 31 44.84109
 2018-Oct-05 06:37     13 12 29.454507 +01 31 44.82185
 2018-Oct-05 06:38     13 12 29.456649 +01 31 44.80265
 2018-Oct-05 06:39     13 12 29.458739 +01 31 44.78347
 2018-Oct-05 06:40     13 12 29.460777 +01 31 44.76433
 2018-Oct-05 06:41     13 12 29.462763 +01 31 44.74522
 2018-Oct-05 06:42     13 12 29.464695 +01 31 44.72615
 2018-Oct-05 06:43     13 12 29.466574 +01 31 44.70710
 2018-Oct-05 06:44     13 12 29.468398 +01 31 44.68809
 2018-Oct-05 06:45     13 12 29.470168 +01 31 44.66911
 2018-Oct-05 06:46     13 12 29.471883 +01 31 44.65016
 2018-Oct-05 06:47     13 12 29.473542 +01 31 44.63124
 2018-Oct-05 06:48     13 12 29.475145 +01 31 44.61235
 2018-Oct-05 06:49     13 12 29.476692 +01 31 44.59350
 2018-Oct-05 06:50     13 12 29.478181 +01 31 44.57468
 2018-Oct-05 06:51     13 12 29.479614 +01 31 44.55588
 2018-Oct-05 06:52     13 12 29.480988 +01 31 44.53712
 2018-Oct-05 06:53     13 12 29.482303 +01 31 44.51839
 2018-Oct-05 06:54     13 12 29.483560 +01 31 44.49969
 2018-Oct-05 06:55     13 12 29.484757 +01 31 44.48102
 2018-Oct-05 06:56     13 12 29.485894 +01 31 44.46239
 2018-Oct-05 06:57     13 12 29.486972 +01 31 44.44378
 2018-Oct-05 06:58     13 12 29.487988 +01 31 44.42520
 2018-Oct-05 06:59     13 12 29.488943 +01 31 44.40666
 2018-Oct-05 07:00     13 12 29.489836 +01 31 44.38814
 2018-Oct-05 07:01     13 12 29.490667 +01 31 44.36965
 2018-Oct-05 07:02     13 12 29.491436 +01 31 44.35120
 2018-Oct-05 07:03     13 12 29.492141 +01 31 44.33277
 2018-Oct-05 07:04     13 12 29.492783 +01 31 44.31438
 2018-Oct-05 07:05     13 12 29.493360 +01 31 44.29601
